[
    {
        "Altitude(m)": 705677.4351393745,
        "Argument of Periapsis(deg)": 0.010251109067964361,
        "Eccentricity": 0.0,
        "Inclination(deg)": 45.0,
        "Latitude(deg)": 37.66219648962637,
        "Longitude(deg)": -35.54666122267766,
        "Mean Anomaly(deg)": 59.470794982732734,
        "RAAN(deg)": 14.990323252687617,
        "Satellite Name": "Constellation 1 69",
        "Satellite Number": 69,
        "Semi-Major Axis(m)": 7083131.272910544,
        "Time(s)": 171
    },
    {
        "Altitude(m)": 705683.0887658614,
        "Argument of Periapsis(deg)": 0.010311057074209765,
        "Eccentricity": 0.0,
        "Inclination(deg)": 45.0,
        "Latitude(deg)": 37.68977698730917,
        "Longitude(deg)": -35.4825116885372,
        "Mean Anomaly(deg)": 59.53149612298264,
        "RAAN(deg)": 14.990266663522045,
        "Satellite Name": "Constellation 1 69",
        "Satellite Number": 69,
        "Semi-Major Axis(m)": 7083131.272910544,
        "Time(s)": 172
    },
    {
        "Altitude(m)": 705688.7374947736,
        "Argument of Periapsis(deg)": 0.010371005080455171,
        "Eccentricity": 0.0,
        "Inclination(deg)": 45.0,
        "Latitude(deg)": 37.71731782960972,
        "Longitude(deg)": -35.418311650266105,
        "Mean Anomaly(deg)": 59.59219726323252,
        "RAAN(deg)": 14.990210074356476,
        "Satellite Name": "Constellation 1 69",
        "Satellite Number": 69,
        "Semi-Major Axis(m)": 7083131.272910544,
        "Time(s)": 173
    },
    {
        "Altitude(m)": 705694.3812911671,
        "Argument of Periapsis(deg)": 0.010430953086700577,
        "Eccentricity": 0.0,
        "Inclination(deg)": 45.0,
        "Latitude(deg)": 37.7448189485939,
        "Longitude(deg)": -35.354061092977005,
        "Mean Anomaly(deg)": 59.65289840348243,
        "RAAN(deg)": 14.990153485190907,
        "Satellite Name": "Constellation 1 69",
        "Satellite Number": 69,
        "Semi-Major Axis(m)": 7083131.272910544,
        "Time(s)": 174
    },
    {
        "Altitude(m)": 705700.0201201354,
        "Argument of Periapsis(deg)": 0.010490901092945983,
        "Eccentricity": 0.0,
        "Inclination(deg)": 45.0,
        "Latitude(deg)": 37.7722802762897,
        "Longitude(deg)": -35.28976000210974,
        "Mean Anomaly(deg)": 59.713599543732336,
        "RAAN(deg)": 14.990096896025337,
        "Satellite Name": "Constellation 1 69",
        "Satellite Number": 69,
        "Semi-Major Axis(m)": 7083131.272910544,
        "Time(s)": 175
    },
    {
        "Altitude(m)": 705705.6539468167,
        "Argument of Periapsis(deg)": 0.010550849099191389,
        "Eccentricity": 0.0,
        "Inclination(deg)": 45.0,
        "Latitude(deg)": 37.79970174468758,
        "Longitude(deg)": -35.2254083634332,
        "Mean Anomaly(deg)": 59.774300683982226,
        "RAAN(deg)": 14.990040306859768,
        "Satellite Name": "Constellation 1 69",
        "Satellite Number": 69,
        "Semi-Major Axis(m)": 7083131.272910544,
        "Time(s)": 176
    },
    {
        "Altitude(m)": 705711.2827363773,
        "Argument of Periapsis(deg)": 0.010610797105436795,
        "Eccentricity": 0.0,
        "Inclination(deg)": 45.0,
        "Latitude(deg)": 37.82708328574086,
        "Longitude(deg)": -35.16100616304648,
        "Mean Anomaly(deg)": 59.83500182423214,
        "RAAN(deg)": 14.989983717694198,
        "Satellite Name": "Constellation 1 69",
        "Satellite Number": 69,
        "Semi-Major Axis(m)": 7083131.272910544,
        "Time(s)": 177
    },
    {
        "Altitude(m)": 705716.9064540416,
        "Argument of Periapsis(deg)": 0.0106707451116822,
        "Eccentricity": 0.0,
        "Inclination(deg)": 45.0,
        "Latitude(deg)": 37.85442483136595,
        "Longitude(deg)": -35.09655355547713,
        "Mean Anomaly(deg)": 59.895702964482034,
        "RAAN(deg)": 14.98992712852863,
        "Satellite Name": "Constellation 1 69",
        "Satellite Number": 69,
        "Semi-Major Axis(m)": 7083131.272910544,
        "Time(s)": 178
    },
    {
        "Altitude(m)": 705722.5250650569,
        "Argument of Periapsis(deg)": 0.010730693117927606,
        "Eccentricity": 0.0,
        "Inclination(deg)": 45.0,
        "Latitude(deg)": 37.88172631344358,
        "Longitude(deg)": -35.03205019129541,
        "Mean Anomaly(deg)": 59.956404104731924,
        "RAAN(deg)": 14.98987053936306,
        "Satellite Name": "Constellation 1 69",
        "Satellite Number": 69,
        "Semi-Major Axis(m)": 7083131.272910544,
        "Time(s)": 179
    },
    {
        "Altitude(m)": 705728.1385347291,
        "Argument of Periapsis(deg)": 0.01079064112417301,
        "Eccentricity": 0.0,
        "Inclination(deg)": 45.0,
        "Latitude(deg)": 37.90898766381787,
        "Longitude(deg)": -34.96749622569684,
        "Mean Anomaly(deg)": 60.01710524498183,
        "RAAN(deg)": 14.98981395019749,
        "Satellite Name": "Constellation 1 69",
        "Satellite Number": 69,
        "Semi-Major Axis(m)": 7083131.272910544,
        "Time(s)": 180
    },
    {
        "Altitude(m)": 705733.746828382,
        "Argument of Periapsis(deg)": 0.010850589130418416,
        "Eccentricity": 0.0,
        "Inclination(deg)": 45.0,
        "Latitude(deg)": 37.93620881429769,
        "Longitude(deg)": -34.90289164611597,
        "Mean Anomaly(deg)": 60.07780638523174,
        "RAAN(deg)": 14.989757361031922,
        "Satellite Name": "Constellation 1 69",
        "Satellite Number": 69,
        "Semi-Major Axis(m)": 7083131.272910544,
        "Time(s)": 181
    },
    {
        "Altitude(m)": 705739.3499114036,
        "Argument of Periapsis(deg)": 0.01091053713666382,
        "Eccentricity": 0.0,
        "Inclination(deg)": 45.0,
        "Latitude(deg)": 37.963389696656805,
        "Longitude(deg)": -34.83823644032512,
        "Mean Anomaly(deg)": 60.13850752548162,
        "RAAN(deg)": 14.98970077186635,
        "Satellite Name": "Constellation 1 69",
        "Satellite Number": 69,
        "Semi-Major Axis(m)": 7083131.272910544,
        "Time(s)": 182
    },
    {
        "Altitude(m)": 705744.9477492138,
        "Argument of Periapsis(deg)": 0.010970485142909228,
        "Eccentricity": 0.0,
        "Inclination(deg)": 45.0,
        "Latitude(deg)": 37.99053024263424,
        "Longitude(deg)": -34.77353059643528,
        "Mean Anomaly(deg)": 60.199208665731526,
        "RAAN(deg)": 14.989644182700781,
        "Satellite Name": "Constellation 1 69",
        "Satellite Number": 69,
        "Semi-Major Axis(m)": 7083131.272910544,
        "Time(s)": 183
    },
    {
        "Altitude(m)": 705750.5403072727,
        "Argument of Periapsis(deg)": 0.011030433149154634,
        "Eccentricity": 0.0,
        "Inclination(deg)": 45.0,
        "Latitude(deg)": 38.01763038393473,
        "Longitude(deg)": -34.70877410289819,
        "Mean Anomaly(deg)": 60.25990980598143,
        "RAAN(deg)": 14.989587593535212,
        "Satellite Name": "Constellation 1 69",
        "Satellite Number": 69,
        "Semi-Major Axis(m)": 7083131.272910544,
        "Time(s)": 184
    },
    {
        "Altitude(m)": 705756.1275510784,
        "Argument of Periapsis(deg)": 0.01109038115540004,
        "Eccentricity": 0.0,
        "Inclination(deg)": 45.0,
        "Latitude(deg)": 38.04469005222897,
        "Longitude(deg)": -34.643967116604166,
        "Mean Anomaly(deg)": 60.32061094623131,
        "RAAN(deg)": 14.989531004369642,
        "Satellite Name": "Constellation 1 69",
        "Satellite Number": 69,
        "Semi-Major Axis(m)": 7083131.272910544,
        "Time(s)": 185
    },
    {
        "Altitude(m)": 705761.7094461793,
        "Argument of Periapsis(deg)": 0.011150329161645444,
        "Eccentricity": 0.0,
        "Inclination(deg)": 45.0,
        "Latitude(deg)": 38.07170917915488,
        "Longitude(deg)": -34.57910929049623,
        "Mean Anomaly(deg)": 60.38131208648122,
        "RAAN(deg)": 14.989474415204073,
        "Satellite Name": "Constellation 1 69",
        "Satellite Number": 69,
        "Semi-Major Axis(m)": 7083131.272910544,
        "Time(s)": 186
    },
    {
        "Altitude(m)": 705767.285958166,
        "Argument of Periapsis(deg)": 0.01121027716789085,
        "Eccentricity": 0.0,
        "Inclination(deg)": 45.0,
        "Latitude(deg)": 38.098687696316624,
        "Longitude(deg)": -34.514200782152884,
        "Mean Anomaly(deg)": 60.44201322673113,
        "RAAN(deg)": 14.989417826038503,
        "Satellite Name": "Constellation 1 69",
        "Satellite Number": 69,
        "Semi-Major Axis(m)": 7083131.272910544,
        "Time(s)": 187
    },
    {
        "Altitude(m)": 705772.8570526538,
        "Argument of Periapsis(deg)": 0.011270225174136258,
        "Eccentricity": 0.0,
        "Inclination(deg)": 45.0,
        "Latitude(deg)": 38.12562553528603,
        "Longitude(deg)": -34.44924158140192,
        "Mean Anomaly(deg)": 60.50271436698102,
        "RAAN(deg)": 14.989361236872934,
        "Satellite Name": "Constellation 1 69",
        "Satellite Number": 69,
        "Semi-Major Axis(m)": 7083131.272910544,
        "Time(s)": 188
    },
    {
        "Altitude(m)": 705778.4226953271,
        "Argument of Periapsis(deg)": 0.011330173180381662,
        "Eccentricity": 0.0,
        "Inclination(deg)": 45.0,
        "Latitude(deg)": 38.152522627602785,
        "Longitude(deg)": -34.38423167841899,
        "Mean Anomaly(deg)": 60.56341550723091,
        "RAAN(deg)": 14.989304647707366,
        "Satellite Name": "Constellation 1 69",
        "Satellite Number": 69,
        "Semi-Major Axis(m)": 7083131.272910544,
        "Time(s)": 189
    }
]